ACS3                    
1 59588U 24077B   24150.81181211  .00000048  00000+0  90157-4 0  9997
2 59588  97.4064 223.2594 0021185 142.1350 218.1296 13.67681968  4892
